MOLNIYA 2-9             
1 07276U 74026A   22344.25024369  .00000165  00000+0  00000+0 0  9997
2 07276  64.2811 202.9543 6414689 279.0205  18.2973  2.45096340253692
MOLNIYA 2-10            
1 07376U 74056A   22339.45546198  .00001215  00000+0  00000+0 0  9993
2 07376  64.3608  76.9604 6765171 285.3413  13.7476  2.01129754353799
MOLNIYA 1-S             
1 07392U 74060A   22344.50142448  .00000154  00000+0  00000+0 0  9999
2 07392   4.6735 280.2651 0010555 217.0165 168.4610  1.00235806121296
MOLNIYA 1-29            
1 07780U 75036A   22341.64549027  .00000072  00000+0 -82468-1 0  9990
2 07780  63.4148 196.3011 6827971 288.0291  12.6671  2.00595010349091
MOLNIYA 2-14            
1 08195U 75081A   22344.34621236  .00000282  00000+0  00000+0 0  9996
2 08195  63.3861 169.3566 6746803 292.2578  11.9534  2.02055482346449
MOLNIYA 1-32            
1 08601U 76006A   22339.01520181  .00001176  00000+0  00000+0 0  9994
2 08601  63.5196 274.3190 7180110 283.8848  11.5156  2.00037098 56078
MOLNIYA 1-36            
1 09880U 77021A   22343.67539871 -.00001316  00000+0  00000+0 0  9992
2 09880  63.4857 245.9181 7094692 289.5459  10.8124  2.00710632232889
MOLNIYA 3-8             
1 10455U 77105A   22343.93904823 -.00001534  00000+0  68979-3 0  9992
2 10455  63.4283 331.2895 7340633 282.5227  10.7382  2.00610169330662
MOLNIYA 1-40            
1 10925U 78055A   22344.13027379 -.00000760  00000+0  00000+0 0  9991
2 10925  63.5313  23.0507 7272229 280.7281  11.6131  2.00701903326204
MOLNIYA 3-10            
1 11057U 78095A   22344.74796596 -.00000164  00000+0 -40161-3 0  9998
2 11057  63.2478 334.5353 5780180 311.6795  11.4791  4.09868225390956
MOLNIYA 3-13            
1 11896U 80063A   22345.39671935 -.00000114  00000+0  00000+0 0  9996
2 11896  62.7494 114.5048 7145962 276.5695  13.7102  2.00638968310691
MOLNIYA 1-49            
1 12156U 81009A   22343.68858616  .00001350  00000+0  31803-3 0  9991
2 12156  61.6937 138.3579 7321995 265.0498  16.0700  2.05693269225099
MOLNIYA 1-52            
1 13012U 81123A   22343.87883527  .00001546  00000+0  10407-1 0  9992
2 13012  61.6391 253.4770 7207247 257.2628  20.4467  2.00531171300099
MOLNIYA 1-53            
1 13070U 82015A   22344.04379088 -.00001027  00000+0 -20790-1 0  9991
2 13070  62.5600 192.8386 6985116 283.0716  12.9970  2.00473241298776
MOLNIYA 3-20            
1 13875U 83015A   22343.54151758  .00001026  00000+0  27081-2 0  9999
2 13875  62.6346 324.9460 7388455 259.7910  17.4817  2.00817405227224
MOLNIYA 1-56            
1 13890U 83019A   22344.25451790  .00000778  00000+0  51671-3 0  9994
2 13890  62.9169 349.6982 7449378 265.6100  14.7184  2.00015248290119
MOLNIYA 1-63            
1 15429U 84124A   22344.44085601 -.00000771  00000+0  00000+0 0  9997
2 15429  63.7473 150.7311 6699186 258.3738  20.0162  2.00804606278286
MOLNIYA 3-24            
1 15738U 85040A   22344.58873979 -.00000151  00000+0 -43867-3 0  9991
2 15738  63.5992  49.5943 6856208 247.2353  30.1308  2.55629963308378
MOLNIYA 3-27            
1 16393U 85117A   22343.84105137 -.00000167  00000+0  00000+0 0  9990
2 16393  64.3105  58.2797 7043308 247.3437  27.7366  2.12398215277905
MOLNIYA 1-69            
1 17078U 86089A   22340.79096537  .00000786  00000+0  00000+0 0  9990
2 17078  64.0020 170.1007 6690322 256.7244  26.0057  2.00718608264296
MOLNIYA 3-31            
1 17328U 87008A   22341.90272359  .00000047  00000+0  00000+0 0  9992
2 17328  63.6818 107.6086 7121067 253.3407  23.2429  2.00683596259378
MOLNIYA 1-71            
1 18946U 88017A   22344.86201631 -.00000088  00000+0  00000+0 0  9999
2 18946  63.3580 100.0803 7234630 256.3219  20.5074  2.00578014254635
MOLNIYA 1-75            
1 19807U 89014A   22339.61352602 -.00000158  00000+0  00000+0 0  9994
2 19807  63.9858 265.9984 6799682 266.1595  20.2680  2.00563783247432
MOLNIYA 1-80            
1 21118U 91012A   22344.03312044 -.00000312  00000+0  00000+0 0  9993
2 21118  65.1936 313.9479 6747521 275.3591  16.9886  2.05247871234581
MOLNIYA 3-40            
1 21196U 91022A   22340.74334873  .00000065  00000+0  00000+0 0  9992
2 21196  65.0807 307.9794 6776284 272.2540  17.8857  2.02994342233186
MOLNIYA 1-81            
1 21426U 91043A   22343.98342673 -.00000195  00000+0  00000+0 0  9992
2 21426  64.0225 321.8349 7072517 266.0415  17.8251  2.00624244230686
MOLNIYA 3-41            
1 21706U 91065A   22343.10033665  .00000520  00000+0  00000+0 0  9990
2 21706  64.0927 146.7374 6910541 254.2647  25.0371  2.04354988230437
MOLNIYA 3-42            
1 22178U 92067A   22343.45020783  .00000200  00000+0  00000+0 0  9997
2 22178  64.6728 197.6154 6419019 264.1779  24.7466  2.20434543 83911
MOLNIYA 1-86            
1 22671U 93035A   22345.17074161  .00000047  00000+0  10803-3 0  9996
2 22671  63.0864 134.0643 4861608   9.9467 356.9494  5.62761868362196
MOLNIYA 1-87            
1 22949U 93079A   22340.09392300  .00000146  00000+0  00000+0 0  9990
2 22949  64.1520  72.4863 6910087 283.2723  13.3998  2.02847754 78416
MOLNIYA 1-88            
1 23420U 94081A   22345.47709029  .00000109  00000+0  00000+0 0  9995
2 23420  64.2820 156.7713 5795238 279.7425  22.7549  3.34495296252867
MOLNIYA 3-47            
1 23642U 95042A   22341.57794634 -.00000746  00000+0  00000+0 0  9990
2 23642  64.2896  53.8691 6953982 283.5230  13.0184  2.01933283200517
MOLNIYA 1-90            
1 24960U 97054A   22344.44092421  .00000109  00000+0  37416-2 0  9999
2 24960  63.6869 122.9228 6098047 297.4166  14.1335  3.18687353213610
MOLNIYA 1-91            
1 25485U 98054A   22344.36732883  .00000139  00000+0  22925-2 0  9999
2 25485  63.1080 122.8808 6771183 291.8611  25.0279  2.36441975182540
MOLNIYA 3-50            
1 25847U 99036A   22341.94890471 -.00000353  00000+0 -87433-3 0  9997
2 25847  63.2848 307.9789 7333535 282.4887  10.8306  2.00661904171599
